CCSDS_OMM_VERS = 2.0
CREATION_DATE  = 
ORIGINATOR     = 

OBJECT_NAME    = STARLINK-36429
OBJECT_ID      = 2026-003Y
CENTER_NAME    = EARTH
REF_FRAME      = TEME
TIME_SYSTEM    = UTC
MEAN_ELEMENT_THEORY = SGP/SGP4

EPOCH          = 2026-01-23T22:00:03.999744
MEAN_MOTION    = 15.75047959
ECCENTRICITY   = .00017278
INCLINATION    = 42.9990
RA_OF_ASC_NODE = 124.5435
ARG_OF_PERICENTER = 260.8696
MEAN_ANOMALY   = 94.3463

EPHEMERIS_TYPE = 0
CLASSIFICATION_TYPE = U
NORAD_CAT_ID   = 67356
ELEMENT_SET_NO = 999
REV_AT_EPOCH   = 346
BSTAR          = -.18204109E-3
MEAN_MOTION_DOT = -.28358E-3
MEAN_MOTION_DDOT = 0

CCSDS_OMM_VERS = 2.0
CREATION_DATE  = 
ORIGINATOR     = 

OBJECT_NAME    = STARLINK-36456
OBJECT_ID      = 2026-003Z
CENTER_NAME    = EARTH
REF_FRAME      = TEME
TIME_SYSTEM    = UTC
MEAN_ELEMENT_THEORY = SGP/SGP4

EPOCH          = 2026-01-23T22:00:03.999744
MEAN_MOTION    = 15.75011367
ECCENTRICITY   = .00016273
INCLINATION    = 42.9989
RA_OF_ASC_NODE = 124.5337
ARG_OF_PERICENTER = 271.4766
MEAN_ANOMALY   = 87.5776

EPHEMERIS_TYPE = 0
CLASSIFICATION_TYPE = U
NORAD_CAT_ID   = 67357
ELEMENT_SET_NO = 999
REV_AT_EPOCH   = 347
BSTAR          = .1790211E-3
MEAN_MOTION_DOT = .27077E-3
MEAN_MOTION_DDOT = 0

CCSDS_OMM_VERS = 2.0
CREATION_DATE  = 
ORIGINATOR     = 

OBJECT_NAME    = STARLINK-36466
OBJECT_ID      = 2026-003AA
CENTER_NAME    = EARTH
REF_FRAME      = TEME
TIME_SYSTEM    = UTC
MEAN_ELEMENT_THEORY = SGP/SGP4

EPOCH          = 2026-01-23T22:00:03.999744
MEAN_MOTION    = 15.75128457
ECCENTRICITY   = .00016002
INCLINATION    = 42.9993
RA_OF_ASC_NODE = 124.5290
ARG_OF_PERICENTER = 254.3429
MEAN_ANOMALY   = 106.6727

EPHEMERIS_TYPE = 0
CLASSIFICATION_TYPE = U
NORAD_CAT_ID   = 67358
ELEMENT_SET_NO = 999
REV_AT_EPOCH   = 347
BSTAR          = -.14462516E-2
MEAN_MOTION_DOT = -.217854E-2
MEAN_MOTION_DDOT = 0

CCSDS_OMM_VERS = 2.0
CREATION_DATE  = 
ORIGINATOR     = 

OBJECT_NAME    = STARLINK-36499
OBJECT_ID      = 2026-003AB
CENTER_NAME    = EARTH
REF_FRAME      = TEME
TIME_SYSTEM    = UTC
MEAN_ELEMENT_THEORY = SGP/SGP4

EPOCH          = 2026-01-23T22:00:03.999744
MEAN_MOTION    = 15.75011925
ECCENTRICITY   = .00017632
INCLINATION    = 42.9993
RA_OF_ASC_NODE = 124.5241
ARG_OF_PERICENTER = 262.2955
MEAN_ANOMALY   = 100.5922

EPHEMERIS_TYPE = 0
CLASSIFICATION_TYPE = U
NORAD_CAT_ID   = 67359
ELEMENT_SET_NO = 999
REV_AT_EPOCH   = 347
BSTAR          = .26838262E-3
MEAN_MOTION_DOT = .409E-3
MEAN_MOTION_DDOT = 0

CCSDS_OMM_VERS = 2.0
CREATION_DATE  = 
ORIGINATOR     = 

OBJECT_NAME    = STARLINK-36469
OBJECT_ID      = 2026-003AC
CENTER_NAME    = EARTH
REF_FRAME      = TEME
TIME_SYSTEM    = UTC
MEAN_ELEMENT_THEORY = SGP/SGP4

EPOCH          = 2026-01-23T22:00:03.999744
MEAN_MOTION    = 15.75043534
ECCENTRICITY   = .00016154
INCLINATION    = 42.9990
RA_OF_ASC_NODE = 124.5187
ARG_OF_PERICENTER = 257.9202
MEAN_ANOMALY   = 106.8816

EPHEMERIS_TYPE = 0
CLASSIFICATION_TYPE = U
NORAD_CAT_ID   = 67360
ELEMENT_SET_NO = 999
REV_AT_EPOCH   = 347
BSTAR          = -.2528277E-3
MEAN_MOTION_DOT = -.39142E-3
MEAN_MOTION_DDOT = 0

CCSDS_OMM_VERS = 2.0
CREATION_DATE  = 
ORIGINATOR     = 

OBJECT_NAME    = STARLINK-35306
OBJECT_ID      = 2026-003AD
CENTER_NAME    = EARTH
REF_FRAME      = TEME
TIME_SYSTEM    = UTC
MEAN_ELEMENT_THEORY = SGP/SGP4

EPOCH          = 2026-01-23T22:00:03.999744
MEAN_MOTION    = 15.75019674
ECCENTRICITY   = .00018133
INCLINATION    = 42.9991
RA_OF_ASC_NODE = 124.5127
ARG_OF_PERICENTER = 255.3193
MEAN_ANOMALY   = 111.4060

EPHEMERIS_TYPE = 0
CLASSIFICATION_TYPE = U
NORAD_CAT_ID   = 67361
ELEMENT_SET_NO = 999
REV_AT_EPOCH   = 341
BSTAR          = .12470675E-3
MEAN_MOTION_DOT = .18705E-3
MEAN_MOTION_DDOT = 0

CCSDS_OMM_VERS = 2.0
CREATION_DATE  = 
ORIGINATOR     = 

OBJECT_NAME    = STARLINK-36428
OBJECT_ID      = 2026-003AE
CENTER_NAME    = EARTH
REF_FRAME      = TEME
TIME_SYSTEM    = UTC
MEAN_ELEMENT_THEORY = SGP/SGP4

EPOCH          = 2026-01-23T22:00:03.999744
MEAN_MOTION    = 15.75051032
ECCENTRICITY   = .00017071
INCLINATION    = 42.9991
RA_OF_ASC_NODE = 124.5079
ARG_OF_PERICENTER = 267.7950
MEAN_ANOMALY   = 100.8521

EPHEMERIS_TYPE = 0
CLASSIFICATION_TYPE = U
NORAD_CAT_ID   = 67362
ELEMENT_SET_NO = 999
REV_AT_EPOCH   = 347
BSTAR          = -.48701474E-3
MEAN_MOTION_DOT = -.7467E-3
MEAN_MOTION_DDOT = 0

CCSDS_OMM_VERS = 2.0
CREATION_DATE  = 
ORIGINATOR     = 

OBJECT_NAME    = TWILIGHT A
OBJECT_ID      = 2026-004A
CENTER_NAME    = EARTH
REF_FRAME      = TEME
TIME_SYSTEM    = UTC
MEAN_ELEMENT_THEORY = SGP/SGP4

EPOCH          = 2026-01-23T22:17:21.662880
MEAN_MOTION    = 14.86912479
ECCENTRICITY   = .00074096
INCLINATION    = 97.7993
RA_OF_ASC_NODE = 24.8738
ARG_OF_PERICENTER = 252.1207
MEAN_ANOMALY   = 107.9201

EPHEMERIS_TYPE = 0
CLASSIFICATION_TYPE = U
NORAD_CAT_ID   = 67363
ELEMENT_SET_NO = 999
REV_AT_EPOCH   = 183
BSTAR          = .66650658E-3
MEAN_MOTION_DOT = .5907E-4
MEAN_MOTION_DDOT = 0

CCSDS_OMM_VERS = 2.0
CREATION_DATE  = 
ORIGINATOR     = 

OBJECT_NAME    = TWILIGHT B
OBJECT_ID      = 2026-004B
CENTER_NAME    = EARTH
REF_FRAME      = TEME
TIME_SYSTEM    = UTC
MEAN_ELEMENT_THEORY = SGP/SGP4

EPOCH          = 2026-01-23T22:16:28.828416
MEAN_MOTION    = 14.87026125
ECCENTRICITY   = .00072649
INCLINATION    = 97.7996
RA_OF_ASC_NODE = 24.8744
ARG_OF_PERICENTER = 247.3627
MEAN_ANOMALY   = 112.6821

EPHEMERIS_TYPE = 0
CLASSIFICATION_TYPE = U
NORAD_CAT_ID   = 67364
ELEMENT_SET_NO = 999
REV_AT_EPOCH   = 184
BSTAR          = .76863517E-3
MEAN_MOTION_DOT = .6841E-4
MEAN_MOTION_DDOT = 0

CCSDS_OMM_VERS = 2.0
CREATION_DATE  = 
ORIGINATOR     = 

OBJECT_NAME    = TWILIGHT C
OBJECT_ID      = 2026-004C
CENTER_NAME    = EARTH
REF_FRAME      = TEME
TIME_SYSTEM    = UTC
MEAN_ELEMENT_THEORY = SGP/SGP4

EPOCH          = 2026-01-23T22:16:11.594208
MEAN_MOTION    = 14.87043749
ECCENTRICITY   = .00069171
INCLINATION    = 97.7971
RA_OF_ASC_NODE = 24.8747
ARG_OF_PERICENTER = 253.5991
MEAN_ANOMALY   = 106.4465

EPHEMERIS_TYPE = 0
CLASSIFICATION_TYPE = U
NORAD_CAT_ID   = 67365
ELEMENT_SET_NO = 999
REV_AT_EPOCH   = 184
BSTAR          = .83789729E-3
MEAN_MOTION_DOT = .7466E-4
MEAN_MOTION_DDOT = 0

CCSDS_OMM_VERS = 2.0
CREATION_DATE  = 
ORIGINATOR     = 

OBJECT_NAME    = TWILIGHT D
OBJECT_ID      = 2026-004D
CENTER_NAME    = EARTH
REF_FRAME      = TEME
TIME_SYSTEM    = UTC
MEAN_ELEMENT_THEORY = SGP/SGP4

EPOCH          = 2026-01-23T22:15:45.040032
MEAN_MOTION    = 14.87059409
ECCENTRICITY   = .000733
INCLINATION    = 97.8028
RA_OF_ASC_NODE = 24.8757
ARG_OF_PERICENTER = 239.6392
MEAN_ANOMALY   = 120.4100

EPHEMERIS_TYPE = 0
CLASSIFICATION_TYPE = U
NORAD_CAT_ID   = 67366
ELEMENT_SET_NO = 999
REV_AT_EPOCH   = 184
BSTAR          = .74457286E-3
MEAN_MOTION_DOT = .663E-4
MEAN_MOTION_DDOT = 0

CCSDS_OMM_VERS = 2.0
CREATION_DATE  = 
ORIGINATOR     = 

OBJECT_NAME    = TWILIGHT E
OBJECT_ID      = 2026-004E
CENTER_NAME    = EARTH
REF_FRAME      = TEME
TIME_SYSTEM    = UTC
MEAN_ELEMENT_THEORY = SGP/SGP4

EPOCH          = 2026-01-23T22:14:55.445568
MEAN_MOTION    = 14.87155985
ECCENTRICITY   = .00064186
INCLINATION    = 97.7959
RA_OF_ASC_NODE = 24.8756
ARG_OF_PERICENTER = 256.2025
MEAN_ANOMALY   = 103.8477

EPHEMERIS_TYPE = 0
CLASSIFICATION_TYPE = U
NORAD_CAT_ID   = 67367
ELEMENT_SET_NO = 999
REV_AT_EPOCH   = 184
BSTAR          = .98428236E-3
MEAN_MOTION_DOT = .8805E-4
MEAN_MOTION_DDOT = 0

