STARLINK-36429          
1 67356U 26003Y   26023.91671296 -.00028358  00000+0 -18204-3 0  9997
2 67356  42.9990 124.5435 0001727 260.8696  94.3463 15.75047959  3464
STARLINK-36456          
1 67357U 26003Z   26023.91671296  .00027077  00000+0  17902-3 0  9997
2 67357  42.9989 124.5337 0001627 271.4766  87.5776 15.75011367  3475
STARLINK-36466          
1 67358U 26003AA  26023.91671296 -.00217854  00000+0 -14463-2 0  9992
2 67358  42.9993 124.5290 0001600 254.3429 106.6727 15.75128457  3474
STARLINK-36499          
1 67359U 26003AB  26023.91671296  .00040900  00000+0  26838-3 0  9997
2 67359  42.9993 124.5241 0001763 262.2955 100.5922 15.75011925  3474
STARLINK-36469          
1 67360U 26003AC  26023.91671296 -.00039142  00000+0 -25283-3 0  9990
2 67360  42.9990 124.5187 0001615 257.9202 106.8816 15.75043534  3476
STARLINK-35306          
1 67361U 26003AD  26023.91671296  .00018705  00000+0  12471-3 0  9996
2 67361  42.9991 124.5127 0001813 255.3193 111.4060 15.75019674  3418
STARLINK-36428          
1 67362U 26003AE  26023.91671296 -.00074670  00000+0 -48701-3 0  9997
2 67362  42.9991 124.5079 0001707 267.7950 100.8521 15.75051032  3479
TWILIGHT A              
1 67363U 26004A   26023.92872295  .00005907  00000+0  66651-3 0  9991
2 67363  97.7993  24.8738 0007409 252.1207 107.9201 14.86912479  1835
TWILIGHT B              
1 67364U 26004B   26023.92811144  .00006841  00000+0  76864-3 0  9993
2 67364  97.7996  24.8744 0007264 247.3627 112.6821 14.87026125  1844
TWILIGHT C              
1 67365U 26004C   26023.92791197  .00007466  00000+0  83790-3 0  9999
2 67365  97.7971  24.8747 0006917 253.5991 106.4465 14.87043749  1844
TWILIGHT D              
1 67366U 26004D   26023.92760463  .00006630  00000+0  74457-3 0  9994
2 67366  97.8028  24.8757 0007330 239.6392 120.4100 14.87059409  1842
TWILIGHT E              
1 67367U 26004E   26023.92703062  .00008805  00000+0  98428-3 0  9997
2 67367  97.7959  24.8756 0006418 256.2025 103.8477 14.87155985  1846
